IRIDIUM 33 DEB          
1 35917U 97051UA  17345.30459782  .00002125  00000-0  42011-3 0  9996
2 35917  86.3961 186.1137 0022561 234.3935 125.5174 14.61800327439825
